{
  "type": "FeatureCollection",
  "features": [
    {
      "type": "Feature",
      "properties": {
        "norad_id": 37565,
        "name": "IRIDIUM 33 DEB",
        "group": "iridium-33-debris",
        "lat": -5.339394151020241,
        "lon": 2.922495434196619,
        "alt_km": 717.1961005927342,
        "timestamp": "2025-12-27T05:29:39.589570+00:00",
        "meta_object_name": "IRIDIUM 33 DEB",
        "meta_object_id": "1997-051YA",
        "meta_epoch": "2025-12-26T17:56:16.184256",
        "meta_mean_motion": 14.51576066,
        "meta_eccentricity": 0.00144436,
        "meta_inclination": 86.3492,
        "meta_ra_of_asc_node": 3.4741,
        "meta_arg_of_pericenter": 43.044,
        "meta_mean_anomaly": 317.1892,
        "meta_ephemeris_type": 0,
        "meta_classification_type": "U",
        "meta_norad_cat_id": 37565,
        "meta_element_set_no": 999,
        "meta_rev_at_epoch": 66040,
        "meta_bstar": 0.00060552562,
        "meta_mean_motion_dot": 2.446e-05,
        "meta_mean_motion_ddot": 0,
        "tle_line1": "1 37565U 97051YA  25360.74740954  .00002446  00000+0  60553-3 0  9991",
        "tle_line2": "2 37565  86.3492   3.4741 0014443  43.0440 317.1892 14.51576066660408"
      },
      "geometry": {
        "type": "Point",
        "coordinates": [
          2.922495434196619,
          -5.339394151020241
        ]
      }
    },
    {
      "type": "Feature",
      "properties": {
        "norad_id": 38017,
        "name": "IRIDIUM 33 DEB",
        "group": "iridium-33-debris",
        "lat": -37.691672541007264,
        "lon": 157.09502327171705,
        "alt_km": 735.836494987916,
        "timestamp": "2025-12-27T05:29:39.589580+00:00",
        "meta_object_name": "IRIDIUM 33 DEB",
        "meta_object_id": "1997-051YD",
        "meta_epoch": "2025-12-26T09:47:07.846080",
        "meta_mean_motion": 14.49460166,
        "meta_eccentricity": 0.0091237,
        "meta_inclination": 86.3416,
        "meta_ra_of_asc_node": 160.2858,
        "meta_arg_of_pericenter": 57.374,
        "meta_mean_anomaly": 303.6228,
        "meta_ephemeris_type": 0,
        "meta_classification_type": "U",
        "meta_norad_cat_id": 38017,
        "meta_element_set_no": 999,
        "meta_rev_at_epoch": 61600,
        "meta_bstar": 0.0041186,
        "meta_mean_motion_dot": 0.00016672,
        "meta_mean_motion_ddot": 0,
        "tle_line1": "1 38017U 97051YD  25360.40772970  .00016672  00000+0  41186-2 0  9996",
        "tle_line2": "2 38017  86.3416 160.2858 0091237  57.3740 303.6228 14.49460166616005"
      },
      "geometry": {
        "type": "Point",
        "coordinates": [
          157.09502327171705,
          -37.691672541007264
        ]
      }
    },
    {
      "type": "Feature",
      "properties": {
        "norad_id": 38022,
        "name": "IRIDIUM 33 DEB",
        "group": "iridium-33-debris",
        "lat": 51.25969179389042,
        "lon": 14.763527257741458,
        "alt_km": 727.6941810095768,
        "timestamp": "2025-12-27T05:29:39.589590+00:00",
        "meta_object_name": "IRIDIUM 33 DEB",
        "meta_object_id": "1997-051YJ",
        "meta_epoch": "2025-12-23T07:57:08.773056",
        "meta_mean_motion": 14.41313849,
        "meta_eccentricity": 0.00453843,
        "meta_inclination": 86.2683,
        "meta_ra_of_asc_node": 11.8042,
        "meta_arg_of_pericenter": 16.2864,
        "meta_mean_anomaly": 343.9781,
        "meta_ephemeris_type": 0,
        "meta_classification_type": "U",
        "meta_norad_cat_id": 38022,
        "meta_element_set_no": 999,
        "meta_rev_at_epoch": 69346,
        "meta_bstar": 0.0010847612,
        "meta_mean_motion_dot": 3.57e-05,
        "meta_mean_motion_ddot": 0,
        "tle_line1": "1 38022U 97051YJ  25357.33135154  .00003570  00000+0  10848-2 0  9991",
        "tle_line2": "2 38022  86.2683  11.8042 0045384  16.2864 343.9781 14.41313849693468"
      },
      "geometry": {
        "type": "Point",
        "coordinates": [
          14.763527257741458,
          51.25969179389042
        ]
      }
    },
    {
      "type": "Feature",
      "properties": {
        "norad_id": 38028,
        "name": "IRIDIUM 33 DEB",
        "group": "iridium-33-debris",
        "lat": 86.30945478987663,
        "lon": 79.0890494029896,
        "alt_km": 709.6873686266763,
        "timestamp": "2025-12-27T05:29:39.589600+00:00",
        "meta_object_name": "IRIDIUM 33 DEB",
        "meta_object_id": "1997-051YQ",
        "meta_epoch": "2025-12-19T17:44:22.316352",
        "meta_mean_motion": 14.46188799,
        "meta_eccentricity": 0.0030512,
        "meta_inclination": 86.3252,
        "meta_ra_of_asc_node": 357.2262,
        "meta_arg_of_pericenter": 99.065,
        "meta_mean_anomaly": 261.4007,
        "meta_ephemeris_type": 0,
        "meta_classification_type": "U",
        "meta_norad_cat_id": 38028,
        "meta_element_set_no": 999,
        "meta_rev_at_epoch": 65596,
        "meta_bstar": 0.00016660929,
        "meta_mean_motion_dot": 6.2e-06,
        "meta_mean_motion_ddot": 0,
        "tle_line1": "1 38028U 97051YQ  25353.73914718  .00000620  00000+0  16661-3 0  9991",
        "tle_line2": "2 38028  86.3252 357.2262 0030512  99.0650 261.4007 14.46188799655964"
      },
      "geometry": {
        "type": "Point",
        "coordinates": [
          79.0890494029896,
          86.30945478987663
        ]
      }
    },
    {
      "type": "Feature",
      "properties": {
        "norad_id": 38228,
        "name": "IRIDIUM 33 DEB",
        "group": "iridium-33-debris",
        "lat": 61.389502496419134,
        "lon": -144.515880041261,
        "alt_km": 752.2703023360782,
        "timestamp": "2025-12-27T05:29:39.589610+00:00",
        "meta_object_name": "IRIDIUM 33 DEB",
        "meta_object_id": "1997-051ZC",
        "meta_epoch": "2025-12-20T22:20:09.818016",
        "meta_mean_motion": 14.2727844,
        "meta_eccentricity": 0.0065198,
        "meta_inclination": 86.2935,
        "meta_ra_of_asc_node": 44.9869,
        "meta_arg_of_pericenter": 163.0896,
        "meta_mean_anomaly": 14.0405,
        "meta_ephemeris_type": 0,
        "meta_classification_type": "U",
        "meta_norad_cat_id": 38228,
        "meta_element_set_no": 999,
        "meta_rev_at_epoch": 84898,
        "meta_bstar": 0.00020665,
        "meta_mean_motion_dot": 5.36e-06,
        "meta_mean_motion_ddot": 0,
        "tle_line1": "1 38228U 97051ZC  25354.93066919  .00000536  00000+0  20665-3 0  9992",
        "tle_line2": "2 38228  86.2935  44.9869 0065198 163.0896  14.0405 14.27278440848980"
      },
      "geometry": {
        "type": "Point",
        "coordinates": [
          -144.515880041261,
          61.389502496419134
        ]
      }
    },
    {
      "type": "Feature",
      "properties": {
        "norad_id": 38241,
        "name": "IRIDIUM 33 DEB",
        "group": "iridium-33-debris",
        "lat": 39.36715335878156,
        "lon": -12.770669830759543,
        "alt_km": 703.2053187490592,
        "timestamp": "2025-12-27T05:29:39.589619+00:00",
        "meta_object_name": "IRIDIUM 33 DEB",
        "meta_object_id": "1997-051ZR",
        "meta_epoch": "2025-12-26T17:45:34.343712",
        "meta_mean_motion": 14.54955887,
        "meta_eccentricity": 0.00047659,
        "meta_inclination": 86.324,
        "meta_ra_of_asc_node": 344.4214,
        "meta_arg_of_pericenter": 42.5288,
        "meta_mean_anomaly": 317.6287,
        "meta_ephemeris_type": 0,
        "meta_classification_type": "U",
        "meta_norad_cat_id": 38241,
        "meta_element_set_no": 999,
        "meta_rev_at_epoch": 60404,
        "meta_bstar": 0.0008649973,
        "meta_mean_motion_dot": 3.741e-05,
        "meta_mean_motion_ddot": 0,
        "tle_line1": "1 38241U 97051ZR  25360.73998083  .00003741  00000+0  86500-3 0  9999",
        "tle_line2": "2 38241  86.3240 344.4214 0004765  42.5288 317.6287 14.54955887604040"
      },
      "geometry": {
        "type": "Point",
        "coordinates": [
          -12.770669830759543,
          39.36715335878156
        ]
      }
    },
    {
      "type": "Feature",
      "properties": {
        "norad_id": 38474,
        "name": "IRIDIUM 33 DEB",
        "group": "iridium-33-debris",
        "lat": -46.078612108186476,
        "lon": -0.05824799501777018,
        "alt_km": 729.1532813863978,
        "timestamp": "2025-12-27T05:29:39.589630+00:00",
        "meta_object_name": "IRIDIUM 33 DEB",
        "meta_object_id": "1997-051AAB",
        "meta_epoch": "2025-12-21T07:20:31.212384",
        "meta_mean_motion": 14.50718538,
        "meta_eccentricity": 0.00276153,
        "meta_inclination": 86.3426,
        "meta_ra_of_asc_node": 6.3307,
        "meta_arg_of_pericenter": 61.1056,
        "meta_mean_anomaly": 299.2914,
        "meta_ephemeris_type": 0,
        "meta_classification_type": "U",
        "meta_norad_cat_id": 38474,
        "meta_element_set_no": 999,
        "meta_rev_at_epoch": 65442,
        "meta_bstar": 0.00039085525,
        "meta_mean_motion_dot": 1.564e-05,
        "meta_mean_motion_ddot": 0,
        "tle_line1": "1 38474U 97051AAB 25355.30591681  .00001564  00000+0  39086-3 0  9995",
        "tle_line2": "2 38474  86.3426   6.3307 0027615  61.1056 299.2914 14.50718538654425"
      },
      "geometry": {
        "type": "Point",
        "coordinates": [
          -0.05824799501777018,
          -46.078612108186476
        ]
      }
    }
  ]
}